{"type": "FeatureCollection", "features": [ {"type": "Feature", "properties": {"norad_id": 66564, "name": "STARLINK-35358", "group": "last-30-days", "lat": -33.44960975222562, "lon": -99.02116515813212, "alt_km": 446.7200092739113, "timestamp": "2025-12-27T07:26:23.943513+00:00", "meta": {"OBJECT_NAME": "STARLINK-35358", "OBJECT_ID": "2025-268H", "EPOCH": "2025-12-27T00:00:02.999808", "MEAN_MOTION": 15.41940151, "ECCENTRICITY": 0.00010752, "INCLINATION": 43.0003, "RA_OF_ASC_NODE": 37.6194, "ARG_OF_PERICENTER": 264.5607, "MEAN_ANOMALY": 47.4561, "EPHEMERIS_TYPE": 0, "CLASSIFICATION_TYPE": "U", "NORAD_CAT_ID": 66564, "ELEMENT_SET_NO": 999, "REV_AT_EPOCH": 602, "BSTAR": -0.051681032, "MEAN_MOTION_DOT": -0.02003809, "MEAN_MOTION_DDOT": 0}, "tle": {"line1": "1 66564U 25268H   25361.00003472 -.02003809  00000+0 -51681-1 0  9998", "line2": "2 66564  43.0003  37.6194 0001075 264.5607  47.4561 15.41940151  6028"}}, "geometry": {"type": "Point", "coordinates": [-99.02116515813212, -33.44960975222562]}}, {"type": "Feature", "properties": {"norad_id": 66565, "name": "STARLINK-35893", "group": "last-30-days", "lat": -38.58985671931925, "lon": -85.29068473528524, "alt_km": 444.36366917869145, "timestamp": "2025-12-27T07:26:23.943526+00:00", "meta": {"OBJECT_NAME": "STARLINK-35893", "OBJECT_ID": "2025-268J", "EPOCH": "2025-12-27T00:00:02.999808", "MEAN_MOTION": 15.42779333, "ECCENTRICITY": 0.00011484, "INCLINATION": 43.0005, "RA_OF_ASC_NODE": 37.5913, "ARG_OF_PERICENTER": 261.512, "MEAN_ANOMALY": 61.8225, "EPHEMERIS_TYPE": 0, "CLASSIFICATION_TYPE": "U", "NORAD_CAT_ID": 66565, "ELEMENT_SET_NO": 999, "REV_AT_EPOCH": 602, "BSTAR": -0.05032383, "MEAN_MOTION_DOT": -0.02007118, "MEAN_MOTION_DDOT": 0}, "tle": {"line1": "1 66565U 25268J   25361.00003472 -.02007118  00000+0 -50324-1 0  9999", "line2": "2 66565  43.0005  37.5913 0001148 261.5120  61.8225 15.42779333  6027"}}, "geometry": {"type": "Point", "coordinates": [-85.29068473528524, -38.58985671931925]}}, {"type": "Feature", "properties": {"norad_id": 66566, "name": "STARLINK-35871", "group": "last-30-days", "lat": -41.03371996997763, "lon": -75.16040965079954, "alt_km": 442.8443718049475, "timestamp": "2025-12-27T07:26:23.943537+00:00", "meta": {"OBJECT_NAME": "STARLINK-35871", "OBJECT_ID": "2025-268K", "EPOCH": "2025-12-27T00:00:02.999808", "MEAN_MOTION": 15.43324198, "ECCENTRICITY": 0.00012551, "INCLINATION": 43.0003, "RA_OF_ASC_NODE": 37.571, "ARG_OF_PERICENTER": 263.7549, "MEAN_ANOMALY": 67.1617, "EPHEMERIS_TYPE": 0, "CLASSIFICATION_TYPE": "U", "NORAD_CAT_ID": 66566, "ELEMENT_SET_NO": 999, "REV_AT_EPOCH": 608, "BSTAR": -0.050347645, "MEAN_MOTION_DOT": -0.02041463, "MEAN_MOTION_DDOT": 0}, "tle": {"line1": "1 66566U 25268K   25361.00003472 -.02041463  00000+0 -50348-1 0  9997", "line2": "2 66566  43.0003  37.5710 0001255 263.7549  67.1617 15.43324198  6085"}}, "geometry": {"type": "Point", "coordinates": [-75.16040965079954, -41.03371996997763]}}, {"type": "Feature", "properties": {"norad_id": 66567, "name": "STARLINK-35825", "group": "last-30-days", "lat": -42.959286061707886, "lon": -52.06100009818275, "alt_km": 429.3287152343064, "timestamp": "2025-12-27T07:26:23.943549+00:00", "meta": {"OBJECT_NAME": "STARLINK-35825", "OBJECT_ID": "2025-268L", "EPOCH": "2025-12-26T10:07:47.278272", "MEAN_MOTION": 15.47297654, "ECCENTRICITY": 0.00032993, "INCLINATION": 43.0008, "RA_OF_ASC_NODE": 40.904, "ARG_OF_PERICENTER": 161.8887, "MEAN_ANOMALY": 198.209, "EPHEMERIS_TYPE": 0, "CLASSIFICATION_TYPE": "U", "NORAD_CAT_ID": 66567, "ELEMENT_SET_NO": 999, "REV_AT_EPOCH": 675, "BSTAR": -0.0027714476, "MEAN_MOTION_DOT": -0.00142593, "MEAN_MOTION_DDOT": 0}, "tle": {"line1": "1 66567U 25268L   25360.42207498 -.00142593  00000+0 -27714-2 0  9993", "line2": "2 66567  43.0008  40.9040 0003299 161.8887 198.2090 15.47297654  6753"}}, "geometry": {"type": "Point", "coordinates": [-52.06100009818275, -42.959286061707886]}}, {"type": "Feature", "properties": {"norad_id": 66568, "name": "STARLINK-35803", "group": "last-30-days", "lat": -40.574692066729, "lon": -77.44286348489642, "alt_km": 435.2132270022994, "timestamp": "2025-12-27T07:26:23.943560+00:00", "meta": {"OBJECT_NAME": "STARLINK-35803", "OBJECT_ID": "2025-268M", "EPOCH": "2025-12-27T00:00:02.999808", "MEAN_MOTION": 15.45680243, "ECCENTRICITY": 0.00013857, "INCLINATION": 43.0003, "RA_OF_ASC_NODE": 37.582, "ARG_OF_PERICENTER": 266.9837, "MEAN_ANOMALY": 59.3876, "EPHEMERIS_TYPE": 0, "CLASSIFICATION_TYPE": "U", "NORAD_CAT_ID": 66568, "ELEMENT_SET_NO": 999, "REV_AT_EPOCH": 602, "BSTAR": -0.039402396, "MEAN_MOTION_DOT": -0.01732935, "MEAN_MOTION_DDOT": 0}, "tle": {"line1": "1 66568U 25268M   25361.00003472 -.01732935  00000+0 -39402-1 0  9997", "line2": "2 66568  43.0003  37.5820 0001385 266.9837  59.3876 15.45680243  6020"}}, "geometry": {"type": "Point", "coordinates": [-77.44286348489642, -40.574692066729]}}, {"type": "Feature", "properties": {"norad_id": 66569, "name": "STARLINK-35835", "group": "last-30-days", "lat": -41.73004298750009, "lon": -37.4496207004354, "alt_km": 436.70117319548444, "timestamp": "2025-12-27T07:26:23.943570+00:00", "meta": {"OBJECT_NAME": "STARLINK-35835", "OBJECT_ID": "2025-268N", "EPOCH": "2025-12-27T00:00:02.999808", "MEAN_MOTION": 15.45390178, "ECCENTRICITY": 0.00013598, "INCLINATION": 43.0004, "RA_OF_ASC_NODE": 37.5087, "ARG_OF_PERICENTER": 263.5192, "MEAN_ANOMALY": 93.2374, "EPHEMERIS_TYPE": 0, "CLASSIFICATION_TYPE": "U", "NORAD_CAT_ID": 66569, "ELEMENT_SET_NO": 999, "REV_AT_EPOCH": 608, "BSTAR": -0.046397244, "MEAN_MOTION_DOT": -0.02022174, "MEAN_MOTION_DDOT": 0}, "tle": {"line1": "1 66569U 25268N   25361.00003472 -.02022174  00000+0 -46397-1 0  9997", "line2": "2 66569  43.0004  37.5087 0001359 263.5192  93.2374 15.45390178  6086"}}, "geometry": {"type": "Point", "coordinates": [-37.4496207004354, -41.73004298750009]}}, {"type": "Feature", "properties": {"norad_id": 66570, "name": "STARLINK-35834", "group": "last-30-days", "lat": 32.673720599202454, "lon": 79.76227608233292, "alt_km": 473.4597754798788, "timestamp": "2025-12-27T07:26:23.943581+00:00", "meta": {"OBJECT_NAME": "STARLINK-35834", "OBJECT_ID": "2025-268P", "EPOCH": "2025-12-27T00:00:02.999808", "MEAN_MOTION": 15.30624103, "ECCENTRICITY": 0.00019409, "INCLINATION": 43.0002, "RA_OF_ASC_NODE": 38.0297, "ARG_OF_PERICENTER": 280.7109, "MEAN_ANOMALY": 222.373, "EPHEMERIS_TYPE": 0, "CLASSIFICATION_TYPE": "U", "NORAD_CAT_ID": 66570, "ELEMENT_SET_NO": 999, "REV_AT_EPOCH": 602, "BSTAR": -0.066575864, "MEAN_MOTION_DOT": -0.01808187, "MEAN_MOTION_DDOT": 0}, "tle": {"line1": "1 66570U 25268P   25361.00003472 -.01808187  00000+0 -66576-1 0  9995", "line2": "2 66570  43.0002  38.0297 0001940 280.7109 222.3730 15.30624103  6027"}}, "geometry": {"type": "Point", "coordinates": [79.76227608233292, 32.673720599202454]}}, {"type": "Feature", "properties": {"norad_id": 66571, "name": "STARLINK-35836", "group": "last-30-days", "lat": 40.46148993039019, "lon": 102.46851941512317, "alt_km": 469.8206924847573, "timestamp": "2025-12-27T07:26:23.943594+00:00", "meta": {"OBJECT_NAME": "STARLINK-35836", "OBJECT_ID": "2025-268Q", "EPOCH": "2025-12-27T00:00:02.999808", "MEAN_MOTION": 15.31527327, "ECCENTRICITY": 0.00012812, "INCLINATION": 43.0002, "RA_OF_ASC_NODE": 37.983, "ARG_OF_PERICENTER": 282.6353, "MEAN_ANOMALY": 239.2826, "EPHEMERIS_TYPE": 0, "CLASSIFICATION_TYPE": "U", "NORAD_CAT_ID": 66571, "ELEMENT_SET_NO": 999, "REV_AT_EPOCH": 608, "BSTAR": -0.071244156, "MEAN_MOTION_DOT": -0.02003257, "MEAN_MOTION_DDOT": 0}, "tle": {"line1": "1 66571U 25268Q   25361.00003472 -.02003257  00000+0 -71244-1 0  9990", "line2": "2 66571  43.0002  37.9830 0001281 282.6353 239.2826 15.31527327  6089"}}, "geometry": {"type": "Point", "coordinates": [102.46851941512317, 40.46148993039019]}}, {"type": "Feature", "properties": {"norad_id": 66572, "name": "STARLINK-35870", "group": "last-30-days", "lat": 41.47092800370854, "lon": 144.6265560878041, "alt_km": 465.317322389119, "timestamp": "2025-12-27T07:26:23.943604+00:00", "meta": {"OBJECT_NAME": "STARLINK-35870", "OBJECT_ID": "2025-268R", "EPOCH": "2025-12-27T00:00:02.999808", "MEAN_MOTION": 15.32967936, "ECCENTRICITY": 0.00010645, "INCLINATION": 43.0001, "RA_OF_ASC_NODE": 37.9126, "ARG_OF_PERICENTER": 291.4658, "MEAN_ANOMALY": 260.3787, "EPHEMERIS_TYPE": 0, "CLASSIFICATION_TYPE": "U", "NORAD_CAT_ID": 66572, "ELEMENT_SET_NO": 999, "REV_AT_EPOCH": 602, "BSTAR": -0.067242034, "MEAN_MOTION_DOT": -0.01949109, "MEAN_MOTION_DDOT": 0}, "tle": {"line1": "1 66572U 25268R   25361.00003472 -.01949109  00000+0 -67242-1 0  9998", "line2": "2 66572  43.0001  37.9126 0001064 291.4658 260.3787 15.32967936  6022"}}, "geometry": {"type": "Point", "coordinates": [144.6265560878041, 41.47092800370854]}}, {"type": "Feature", "properties": {"norad_id": 66573, "name": "STARLINK-35650", "group": "last-30-days", "lat": 35.319409494640134, "lon": 166.61056699723798, "alt_km": 463.6991251331001, "timestamp": "2025-12-27T07:26:23.943614+00:00", "meta": {"OBJECT_NAME": "STARLINK-35650", "OBJECT_ID": "2025-268S", "EPOCH": "2025-12-27T00:00:02.999808", "MEAN_MOTION": 15.33812264, "ECCENTRICITY": 9.552e-05, "INCLINATION": 43.0014, "RA_OF_ASC_NODE": 37.8694, "ARG_OF_PERICENTER": 289.7457, "MEAN_ANOMALY": 279.4114, "EPHEMERIS_TYPE": 0, "CLASSIFICATION_TYPE": "U", "NORAD_CAT_ID": 66573, "ELEMENT_SET_NO": 999, "REV_AT_EPOCH": 596, "BSTAR": -0.065927524, "MEAN_MOTION_DOT": -0.01961634, "MEAN_MOTION_DDOT": 0}, "tle": {"line1": "1 66573U 25268S   25361.00003472 -.01961634  00000+0 -65928-1 0  9995", "line2": "2 66573  43.0014  37.8694 0000955 289.7457 279.4114 15.33812264  5962"}}, "geometry": {"type": "Point", "coordinates": [166.61056699723798, 35.319409494640134]}}]}